COMMENT,ORIGINATOR,NORAD_CAT_ID,OBJECT_NAME,OBJECT_TYPE,CLASSIFICATION_TYPE,INTLDES,EPOCH,EPOCH_MICROSECONDS,MEAN_MOTION,ECCENTRICITY,INCLINATION,RA_OF_ASC_NODE,ARG_OF_PERICENTER,MEAN_ANOMALY,EPHEMERIS_TYPE,ELEMENT_SET_NO,REV_AT_EPOCH,BSTAR,MEAN_MOTION_DOT,MEAN_MOTION_DDOT,FILE,TLE_LINE0,TLE_LINE1,TLE_LINE2,OBJECT_ID,OBJECT_NUMBER,SEMIMAJOR_AXIS,PERIOD,APOGEE,PERIGEE,DECAYED
"GENERATED VIA SPACETRACK.ORG API","18 SPCS","48899","SPACEBEE-110","PAYLOAD","U","21059W","2021-10-20 08:09:11","293920","15.12700529","0.0009464","97.5302","60.4903","203.1617","156.9188","0","999","1761","0.00018208","0.00003125","0","3174382","0 SPACEBEE-110","1 48899U 21059W   21293.33971405  .00003125  00000-0  18208-3 0  9997","2 48899  97.5302  60.4903 0009464 203.1617 156.9188 15.12700529 17616","2021-059W","48899","6906.105","95.194","534.506","521.434","0"
"GENERATED VIA SPACETRACK.ORG API","18 SPCS","48899","SPACEBEE-110","PAYLOAD","U","21059W","2021-10-20 17:40:42","854304","15.12702365","0.0009503","97.5303","60.8822","201.6937","158.3892","0","999","1767","0.00016284","0.00002788","0","3174823","0 SPACEBEE-110","1 48899U 21059W   21293.73660711  .00002788  00000-0  16284-3 0  9992","2 48899  97.5303  60.8822 0009503 201.6937 158.3892 15.12702365 17677","2021-059W","48899","6906.100","95.194","534.528","521.402","0"
"GENERATED VIA SPACETRACK.ORG API","18 SPCS","48899","SPACEBEE-110","PAYLOAD","U","21059W","2021-10-20 20:51:13","361760","15.12703081","0.0009516","97.5304","61.0128","201.3092","158.7744","0","999","1769","0.00015969","0.00002733","0","3175135","0 SPACEBEE-110","1 48899U 21059W   21293.86890465  .00002733  00000-0  15969-3 0  9996","2 48899  97.5304  61.0128 0009516 201.3092 158.7744 15.12703081 17691","2021-059W","48899","6906.098","95.194","534.534","521.391","0"
"GENERATED VIA SPACETRACK.ORG API","18 SPCS","48899","SPACEBEE-110","PAYLOAD","U","21059W","2021-10-21 07:58:00","106752","15.12705079","0.0009561","97.5304","61.4698","199.7737","160.3124","0","999","1776","0.0001455","0.00002484","0","3176553","0 SPACEBEE-110","1 48899U 21059W   21294.33194568  .00002484  00000-0  14550-3 0  9998","2 48899  97.5304  61.4698 0009561 199.7737 160.3124 15.12705079 17761","2021-059W","48899","6906.092","95.194","534.559","521.354","0"
"GENERATED VIA SPACETRACK.ORG API","18 SPCS","48899","SPACEBEE-110","PAYLOAD","U","21059W","2021-10-21 22:15:17","260704","15.12708683","0.0009618","97.5306","62.0574","197.7724","162.3172","0","999","1785","0.00015775","0.00002699","0","3176920","0 SPACEBEE-110","1 48899U 21059W   21294.92728311  .00002699  00000-0  15775-3 0  9990","2 48899  97.5306  62.0574 0009618 197.7724 162.3172 15.12708683 17859","2021-059W","48899","6906.081","95.193","534.588","521.303","0"
"GENERATED VIA SPACETRACK.ORG API","18 SPCS","48899","SPACEBEE-110","PAYLOAD","U","21059W","2021-10-22 03:01:02","962272","15.12709751","0.0009642","97.5307","62.2533","197.009","163.0819","0","999","1788","0.00016332","0.00002797","0","3177469","0 SPACEBEE-110","1 48899U 21059W   21295.12572873  .00002797  00000-0  16332-3 0  9992","2 48899  97.5307  62.2533 0009642 197.0090 163.0819 15.12709751 17889","2021-059W","48899","6906.077","95.193","534.601","521.283","0"
"GENERATED VIA SPACETRACK.ORG API","18 SPCS","48899","SPACEBEE-110","PAYLOAD","U","21059W","2021-10-22 07:46:48","658656","15.12711102","0.0009643","97.5308","62.4492","196.279","163.8133","0","999","1791","0.00016541","0.00002834","0","3178676","0 SPACEBEE-110","1 48899U 21059W   21295.32417429  .00002834  00000-0  16541-3 0  9993","2 48899  97.5308  62.4492 0009643 196.2790 163.8133 15.12711102 17919","2021-059W","48899","6906.073","95.193","534.598","521.279","0"
"GENERATED VIA SPACETRACK.ORG API","18 SPCS","48899","SPACEBEE-110","PAYLOAD","U","21059W","2021-10-23 02:49:51","294720","15.12715693","0.000972","97.5309","63.2328","193.5081","166.5891","0","999","1803","0.00017726","0.00003042","0","3180283","0 SPACEBEE-110","1 48899U 21059W   21296.11795480  .00003042  00000-0  17726-3 0  9995","2 48899  97.5309  63.2328 0009720 193.5081 166.5891 15.12715693 18030","2021-059W","48899","6906.059","95.193","534.637","521.212","0"
"GENERATED VIA SPACETRACK.ORG API","18 SPCS","48899","SPACEBEE-110","PAYLOAD","U","21059W","2021-10-23 07:35:36","905568","15.12717125","0.0009728","97.5309","63.4287","192.8881","167.2103","0","999","1806","0.00018217","0.00003128","0","3180074","0 SPACEBEE-110","1 48899U 21059W   21296.31639937  .00003128  00000-0  18217-3 0  9992","2 48899  97.5309  63.4287 0009728 192.8881 167.2103 15.12717125 18063","2021-059W","48899","6906.055","95.193","534.638","521.202","0"
"GENERATED VIA SPACETRACK.ORG API","18 SPCS","48899","SPACEBEE-110","PAYLOAD","U","21059W","2021-10-23 13:56:37","740768","15.12718252","0.0009758","97.531","63.6898","191.902","168.1981","0","999","1810","0.00018054","0.000031","0","3181152","0 SPACEBEE-110","1 48899U 21059W   21296.58099237  .00003100  00000-0  18054-3 0  9993","2 48899  97.5310  63.6898 0009758 191.9020 168.1981 15.12718252 18104","2021-059W","48899","6906.051","95.193","534.655","521.178","0"
"GENERATED VIA SPACETRACK.ORG API","18 SPCS","48899","SPACEBEE-110","PAYLOAD","U","21059W","2021-10-24 07:24:24","828480","15.12722832","0.0009823","97.5311","64.4081","189.512","170.5927","0","999","1821","0.00018923","0.00003253","0","3182197","0 SPACEBEE-110","1 48899U 21059W   21297.30862070  .00003253  00000-0  18923-3 0  9991","2 48899  97.5311  64.4081 0009823 189.5120 170.5927 15.12722832 18213","2021-059W","48899","6906.038","95.193","534.686","521.119","0"
"GENERATED VIA SPACETRACK.ORG API","18 SPCS","48899","SPACEBEE-110","PAYLOAD","U","21059W","2021-10-24 20:06:26","220672","15.12726721","0.0009868","97.5311","64.9304","187.6722","172.4359","0","999","1829","0.00020116","0.00003462","0","3182731","0 SPACEBEE-110","1 48899U 21059W   21297.83780348  .00003462  00000-0  20116-3 0  9995","2 48899  97.5311  64.9304 0009868 187.6722 172.4359 15.12726721 18291","2021-059W","48899","6906.026","95.192","534.706","521.076","0"
"GENERATED VIA SPACETRACK.ORG API","18 SPCS","48899","SPACEBEE-110","PAYLOAD","U","21059W","2021-10-25 05:37:57","185760","15.12729367","0.0009899","97.5311","65.3221","186.3383","173.7724","0","999","1835","0.00020292","0.00003493","0","3183453","0 SPACEBEE-110","1 48899U 21059W   21298.23468965  .00003493  00000-0  20292-3 0  9997","2 48899  97.5311  65.3221 0009899 186.3383 173.7724 15.12729367 18353","2021-059W","48899","6906.018","95.192","534.719","521.046","0"
"GENERATED VIA SPACETRACK.ORG API","18 SPCS","48899","SPACEBEE-110","PAYLOAD","U","21059W","2021-10-25 21:30:28","591200","15.12735831","0.0009956","97.5311","65.975","184.013","176.1022","0","999","1845","0.00023079","0.00003983","0","3184343","0 SPACEBEE-110","1 48899U 21059W   21298.89616425  .00003983  00000-0  23079-3 0  9995","2 48899  97.5311  65.9750 0009956 184.0130 176.1022 15.12735831 18457","2021-059W","48899","6905.998","95.192","534.739","520.987","0"
"GENERATED VIA SPACETRACK.ORG API","18 SPCS","48899","SPACEBEE-110","PAYLOAD","U","21059W","2021-10-26 08:37:14","483424","15.12739782","0.0009992","97.5311","66.4321","182.2906","177.8281","0","999","1852","0.0002395","0.00004136","0","3184921","0 SPACEBEE-110","1 48899U 21059W   21299.35919541  .00004136  00000-0  23950-3 0  9991","2 48899  97.5311  66.4321 0009992 182.2906 177.8281 15.12739782 18520","2021-059W","48899","6905.986","95.192","534.751","520.950","0"
"GENERATED VIA SPACETRACK.ORG API","18 SPCS","48899","SPACEBEE-110","PAYLOAD","U","21059W","2021-10-27 08:26:00","994560","15.12748115","0.0010071","97.5312","67.4115","178.6036","181.5224","0","999","1867","0.0002417","0.00004176","0","3186762","0 SPACEBEE-110","1 48899U 21059W   21300.35140040  .00004176  00000-0  24170-3 0  9993","2 48899  97.5312  67.4115 0010071 178.6036 181.5224 15.12748115 18671","2021-059W","48899","6905.961","95.191","534.781","520.871","0"
"GENERATED VIA SPACETRACK.ORG API","18 SPCS","48899","SPACEBEE-110","PAYLOAD","U","21059W","2021-10-27 08:26:00","994560","15.12748115","0.0010071","97.5312","67.4115","178.6036","181.5224","0","999","1867","0.0002417","0.00004176","0","3187107","0 SPACEBEE-110","1 48899U 21059W   21300.35140040  .00004176  00000-0  24170-3 0  9993","2 48899  97.5312  67.4115 0010071 178.6036 181.5224 15.12748115 18671","2021-059W","48899","6905.961","95.191","534.781","520.871","0"
"GENERATED VIA SPACETRACK.ORG API","18 SPCS","48899","SPACEBEE-110","PAYLOAD","U","21059W","2021-10-28 08:14:47","27904","15.1275643","0.0010143","97.531","68.3909","175.3321","184.8006","0","999","1882","0.00024192","0.00004181","0","3189111","0 SPACEBEE-110","1 48899U 21059W   21301.34359986  .00004181  00000-0  24192-3 0  9994","2 48899  97.5310  68.3909 0010143 175.3321 184.8006 15.12756430 18821","2021-059W","48899","6905.935","95.190","534.805","520.796","0"
"GENERATED VIA SPACETRACK.ORG API","18 SPCS","48899","SPACEBEE-110","PAYLOAD","U","21059W","2021-10-28 19:21:32","346432","15.12760817","0.0010179","97.5309","68.8479","173.8564","186.2794","0","999","1889","0.00025362","0.00004387","0","3189402","0 SPACEBEE-110","1 48899U 21059W   21301.80662438  .00004387  00000-0  25362-3 0  9992","2 48899  97.5309  68.8479 0010179 173.8564 186.2794 15.12760817 18898","2021-059W","48899","6905.922","95.190","534.816","520.757","0"
"GENERATED VIA SPACETRACK.ORG API","18 SPCS","48899","SPACEBEE-110","PAYLOAD","U","21059W","2021-10-29 01:42:32","484384","15.12763174","0.0010197","97.5309","69.1091","173.0229","187.1145","0","999","1893","0.00026163","0.00004528","0","3190223","0 SPACEBEE-110","1 48899U 21059W   21302.07120931  .00004528  00000-0  26163-3 0  9996","2 48899  97.5309  69.1091 0010197 173.0229 187.1145 15.12763174 18936","2021-059W","48899","6905.915","95.190","534.822","520.738","0"
